CCSDS_OMM_VERS = 2.0
CREATION_DATE  = 
ORIGINATOR     = 

OBJECT_NAME    = STARLINK-36112
OBJECT_ID      = 2025-286V
CENTER_NAME    = EARTH
REF_FRAME      = TEME
TIME_SYSTEM    = UTC
MEAN_ELEMENT_THEORY = SGP/SGP4

EPOCH          = 2025-12-21T20:00:01.999008
MEAN_MOTION    = 15.74378700
ECCENTRICITY   = .0000749
INCLINATION    = 53.1581
RA_OF_ASC_NODE = 4.7789
ARG_OF_PERICENTER = 106.5817
MEAN_ANOMALY   = 146.8361

EPHEMERIS_TYPE = 0
CLASSIFICATION_TYPE = U
NORAD_CAT_ID   = 66944
ELEMENT_SET_NO = 999
REV_AT_EPOCH   = 345
BSTAR          = -.37459E-2
MEAN_MOTION_DOT = -.520889E-2
MEAN_MOTION_DDOT = 0

CCSDS_OMM_VERS = 2.0
CREATION_DATE  = 
ORIGINATOR     = 

OBJECT_NAME    = STARLINK-36110
OBJECT_ID      = 2025-286W
CENTER_NAME    = EARTH
REF_FRAME      = TEME
TIME_SYSTEM    = UTC
MEAN_ELEMENT_THEORY = SGP/SGP4

EPOCH          = 2025-12-21T20:00:01.999008
MEAN_MOTION    = 15.74351975
ECCENTRICITY   = .0001021
INCLINATION    = 53.1579
RA_OF_ASC_NODE = 4.7747
ARG_OF_PERICENTER = 105.0465
MEAN_ANOMALY   = 150.2811

EPHEMERIS_TYPE = 0
CLASSIFICATION_TYPE = U
NORAD_CAT_ID   = 66945
ELEMENT_SET_NO = 999
REV_AT_EPOCH   = 345
BSTAR          = -.34716E-2
MEAN_MOTION_DOT = -.484318E-2
MEAN_MOTION_DDOT = 0

CCSDS_OMM_VERS = 2.0
CREATION_DATE  = 
ORIGINATOR     = 

OBJECT_NAME    = STARLINK-36115
OBJECT_ID      = 2025-286X
CENTER_NAME    = EARTH
REF_FRAME      = TEME
TIME_SYSTEM    = UTC
MEAN_ELEMENT_THEORY = SGP/SGP4

EPOCH          = 2025-12-21T20:00:01.999008
MEAN_MOTION    = 15.74385473
ECCENTRICITY   = .0000972
INCLINATION    = 53.1580
RA_OF_ASC_NODE = 4.7708
ARG_OF_PERICENTER = 105.6314
MEAN_ANOMALY   = 151.6288

EPHEMERIS_TYPE = 0
CLASSIFICATION_TYPE = U
NORAD_CAT_ID   = 66946
ELEMENT_SET_NO = 999
REV_AT_EPOCH   = 345
BSTAR          = -.38995E-2
MEAN_MOTION_DOT = -.54112E-2
MEAN_MOTION_DDOT = 0

CCSDS_OMM_VERS = 2.0
CREATION_DATE  = 
ORIGINATOR     = 

OBJECT_NAME    = STARLINK-36089
OBJECT_ID      = 2025-286Y
CENTER_NAME    = EARTH
REF_FRAME      = TEME
TIME_SYSTEM    = UTC
MEAN_ELEMENT_THEORY = SGP/SGP4

EPOCH          = 2025-12-21T20:00:01.999008
MEAN_MOTION    = 15.74402832
ECCENTRICITY   = .0000569
INCLINATION    = 53.1578
RA_OF_ASC_NODE = 4.7624
ARG_OF_PERICENTER = 87.2320
MEAN_ANOMALY   = 173.8506

EPHEMERIS_TYPE = 0
CLASSIFICATION_TYPE = U
NORAD_CAT_ID   = 66947
ELEMENT_SET_NO = 999
REV_AT_EPOCH   = 345
BSTAR          = -.40312E-2
MEAN_MOTION_DOT = -.558598E-2
MEAN_MOTION_DDOT = 0

CCSDS_OMM_VERS = 2.0
CREATION_DATE  = 
ORIGINATOR     = 

OBJECT_NAME    = STARLINK-36116
OBJECT_ID      = 2025-286Z
CENTER_NAME    = EARTH
REF_FRAME      = TEME
TIME_SYSTEM    = UTC
MEAN_ELEMENT_THEORY = SGP/SGP4

EPOCH          = 2025-12-21T20:00:01.999008
MEAN_MOTION    = 15.74341349
ECCENTRICITY   = .0000562
INCLINATION    = 53.1580
RA_OF_ASC_NODE = 4.7666
ARG_OF_PERICENTER = 97.8955
MEAN_ANOMALY   = 161.2691

EPHEMERIS_TYPE = 0
CLASSIFICATION_TYPE = U
NORAD_CAT_ID   = 66948
ELEMENT_SET_NO = 999
REV_AT_EPOCH   = 345
BSTAR          = -.33278E-2
MEAN_MOTION_DOT = -.465077E-2
MEAN_MOTION_DDOT = 0

CCSDS_OMM_VERS = 2.0
CREATION_DATE  = 
ORIGINATOR     = 

OBJECT_NAME    = STARLINK-36096
OBJECT_ID      = 2025-286AA
CENTER_NAME    = EARTH
REF_FRAME      = TEME
TIME_SYSTEM    = UTC
MEAN_ELEMENT_THEORY = SGP/SGP4

EPOCH          = 2025-12-21T20:00:01.999008
MEAN_MOTION    = 15.74376758
ECCENTRICITY   = .0000895
INCLINATION    = 53.1578
RA_OF_ASC_NODE = 4.7589
ARG_OF_PERICENTER = 105.9774
MEAN_ANOMALY   = 157.0379

EPHEMERIS_TYPE = 0
CLASSIFICATION_TYPE = U
NORAD_CAT_ID   = 66949
ELEMENT_SET_NO = 999
REV_AT_EPOCH   = 345
BSTAR          = -.38198E-2
MEAN_MOTION_DOT = -.53052E-2
MEAN_MOTION_DDOT = 0

CCSDS_OMM_VERS = 2.0
CREATION_DATE  = 
ORIGINATOR     = 

OBJECT_NAME    = STARLINK-36111
OBJECT_ID      = 2025-286AB
CENTER_NAME    = EARTH
REF_FRAME      = TEME
TIME_SYSTEM    = UTC
MEAN_ELEMENT_THEORY = SGP/SGP4

EPOCH          = 2025-12-21T20:00:01.999008
MEAN_MOTION    = 15.74380740
ECCENTRICITY   = .0000726
INCLINATION    = 53.1578
RA_OF_ASC_NODE = 4.7507
ARG_OF_PERICENTER = 91.9611
MEAN_ANOMALY   = 174.8912

EPHEMERIS_TYPE = 0
CLASSIFICATION_TYPE = U
NORAD_CAT_ID   = 66950
ELEMENT_SET_NO = 999
REV_AT_EPOCH   = 345
BSTAR          = -.3879E-2
MEAN_MOTION_DOT = -.538322E-2
MEAN_MOTION_DDOT = 0

CCSDS_OMM_VERS = 2.0
CREATION_DATE  = 
ORIGINATOR     = 

OBJECT_NAME    = STARLINK-35999
OBJECT_ID      = 2025-286AC
CENTER_NAME    = EARTH
REF_FRAME      = TEME
TIME_SYSTEM    = UTC
MEAN_ELEMENT_THEORY = SGP/SGP4

EPOCH          = 2025-12-21T20:00:01.999008
MEAN_MOTION    = 15.74380321
ECCENTRICITY   = .0000803
INCLINATION    = 53.1581
RA_OF_ASC_NODE = 4.7467
ARG_OF_PERICENTER = 84.0754
MEAN_ANOMALY   = 184.7030

EPHEMERIS_TYPE = 0
CLASSIFICATION_TYPE = U
NORAD_CAT_ID   = 66951
ELEMENT_SET_NO = 999
REV_AT_EPOCH   = 345
BSTAR          = -.39418E-2
MEAN_MOTION_DOT = -.546493E-2
MEAN_MOTION_DDOT = 0

CCSDS_OMM_VERS = 2.0
CREATION_DATE  = 
ORIGINATOR     = 

OBJECT_NAME    = STARLINK-36122
OBJECT_ID      = 2025-286AD
CENTER_NAME    = EARTH
REF_FRAME      = TEME
TIME_SYSTEM    = UTC
MEAN_ELEMENT_THEORY = SGP/SGP4

EPOCH          = 2025-12-21T20:00:01.999008
MEAN_MOTION    = 15.74362345
ECCENTRICITY   = .000087
INCLINATION    = 53.1582
RA_OF_ASC_NODE = 4.7549
ARG_OF_PERICENTER = 83.3971
MEAN_ANOMALY   = 181.5465

EPHEMERIS_TYPE = 0
CLASSIFICATION_TYPE = U
NORAD_CAT_ID   = 66952
ELEMENT_SET_NO = 999
REV_AT_EPOCH   = 345
BSTAR          = -.36976E-2
MEAN_MOTION_DOT = -.514223E-2
MEAN_MOTION_DDOT = 0

CCSDS_OMM_VERS = 2.0
CREATION_DATE  = 
ORIGINATOR     = 

OBJECT_NAME    = HULIANWANG DIGUI-114
OBJECT_ID      = 2025-287A
CENTER_NAME    = EARTH
REF_FRAME      = TEME
TIME_SYSTEM    = UTC
MEAN_ELEMENT_THEORY = SGP/SGP4

EPOCH          = 2025-12-20T09:09:14.655168
MEAN_MOTION    = 13.66161866
ECCENTRICITY   = .00096738
INCLINATION    = 86.4960
RA_OF_ASC_NODE = 343.3747
ARG_OF_PERICENTER = 185.0352
MEAN_ANOMALY   = 175.0710

EPHEMERIS_TYPE = 0
CLASSIFICATION_TYPE = U
NORAD_CAT_ID   = 66953
ELEMENT_SET_NO = 999
REV_AT_EPOCH   = 157
BSTAR          = .3033618E-5
MEAN_MOTION_DOT = .19E-6
MEAN_MOTION_DDOT = 0

CCSDS_OMM_VERS = 2.0
CREATION_DATE  = 
ORIGINATOR     = 

OBJECT_NAME    = HULIANWANG DIGUI-115
OBJECT_ID      = 2025-287B
CENTER_NAME    = EARTH
REF_FRAME      = TEME
TIME_SYSTEM    = UTC
MEAN_ELEMENT_THEORY = SGP/SGP4

EPOCH          = 2025-12-20T14:23:56.755680
MEAN_MOTION    = 13.66603826
ECCENTRICITY   = .00094984
INCLINATION    = 86.4975
RA_OF_ASC_NODE = 343.2967
ARG_OF_PERICENTER = 182.0064
MEAN_ANOMALY   = 178.1058

EPHEMERIS_TYPE = 0
CLASSIFICATION_TYPE = U
NORAD_CAT_ID   = 66954
ELEMENT_SET_NO = 999
REV_AT_EPOCH   = 160
BSTAR          = -.979328E-6
MEAN_MOTION_DOT = .16E-6
MEAN_MOTION_DDOT = 0

CCSDS_OMM_VERS = 2.0
CREATION_DATE  = 
ORIGINATOR     = 

OBJECT_NAME    = HULIANWANG DIGUI-116
OBJECT_ID      = 2025-287C
CENTER_NAME    = EARTH
REF_FRAME      = TEME
TIME_SYSTEM    = UTC
MEAN_ELEMENT_THEORY = SGP/SGP4

EPOCH          = 2025-12-20T16:07:29.631072
MEAN_MOTION    = 13.67009251
ECCENTRICITY   = .00086607
INCLINATION    = 86.4918
RA_OF_ASC_NODE = 343.2556
ARG_OF_PERICENTER = 174.2680
MEAN_ANOMALY   = 185.8579

EPHEMERIS_TYPE = 0
CLASSIFICATION_TYPE = U
NORAD_CAT_ID   = 66955
ELEMENT_SET_NO = 999
REV_AT_EPOCH   = 161
BSTAR          = .12368885E-3
MEAN_MOTION_DOT = .12E-5
MEAN_MOTION_DDOT = 0

CCSDS_OMM_VERS = 2.0
CREATION_DATE  = 
ORIGINATOR     = 

OBJECT_NAME    = HULIANWANG DIGUI-117
OBJECT_ID      = 2025-287D
CENTER_NAME    = EARTH
REF_FRAME      = TEME
TIME_SYSTEM    = UTC
MEAN_ELEMENT_THEORY = SGP/SGP4

EPOCH          = 2025-12-18T14:55:12.079776
MEAN_MOTION    = 13.67770338
ECCENTRICITY   = .00076767
INCLINATION    = 86.4971
RA_OF_ASC_NODE = 344.0126
ARG_OF_PERICENTER = 176.3616
MEAN_ANOMALY   = 183.7600

EPHEMERIS_TYPE = 0
CLASSIFICATION_TYPE = U
NORAD_CAT_ID   = 66956
ELEMENT_SET_NO = 999
REV_AT_EPOCH   = 133
BSTAR          = .10922436E-4
MEAN_MOTION_DOT = .26E-6
MEAN_MOTION_DDOT = 0

CCSDS_OMM_VERS = 2.0
CREATION_DATE  = 
ORIGINATOR     = 

OBJECT_NAME    = HULIANWANG DIGUI-118
OBJECT_ID      = 2025-287E
CENTER_NAME    = EARTH
REF_FRAME      = TEME
TIME_SYSTEM    = UTC
MEAN_ELEMENT_THEORY = SGP/SGP4

EPOCH          = 2025-12-21T00:50:13.849728
MEAN_MOTION    = 13.67510110
ECCENTRICITY   = .00054729
INCLINATION    = 86.4946
RA_OF_ASC_NODE = 343.1304
ARG_OF_PERICENTER = 170.9065
MEAN_ANOMALY   = 189.2194

EPHEMERIS_TYPE = 0
CLASSIFICATION_TYPE = U
NORAD_CAT_ID   = 66957
ELEMENT_SET_NO = 999
REV_AT_EPOCH   = 166
BSTAR          = .13223305E-3
MEAN_MOTION_DOT = .128E-5
MEAN_MOTION_DDOT = 0

CCSDS_OMM_VERS = 2.0
CREATION_DATE  = 
ORIGINATOR     = 

OBJECT_NAME    = CZ-6A R/B
OBJECT_ID      = 2025-287F
CENTER_NAME    = EARTH
REF_FRAME      = TEME
TIME_SYSTEM    = UTC
MEAN_ELEMENT_THEORY = SGP/SGP4

EPOCH          = 2025-12-21T14:20:48.026976
MEAN_MOTION    = 13.94921167
ECCENTRICITY   = .01072434
INCLINATION    = 86.5061
RA_OF_ASC_NODE = 342.7330
ARG_OF_PERICENTER = 75.5233
MEAN_ANOMALY   = 285.7811

EPHEMERIS_TYPE = 0
CLASSIFICATION_TYPE = U
NORAD_CAT_ID   = 66958
ELEMENT_SET_NO = 999
REV_AT_EPOCH   = 177
BSTAR          = .46632226E-4
MEAN_MOTION_DOT = .85E-6
MEAN_MOTION_DDOT = 0

